{"type": "FeatureCollection", "features": [ {"type": "Feature", "properties": {"norad_id": 35891, "name": "COSMOS 2251 DEB", "group": "cosmos-2251-debris", "lat": -7.54879739898582, "lon": 61.21159754372156, "alt_km": 492.783717536372, "timestamp": "2025-12-26T22:28:06.182438+00:00", "meta": {"OBJECT_NAME": "COSMOS 2251 DEB", "OBJECT_ID": "1993-036AUE", "EPOCH": "2025-12-24T11:02:21.554880", "MEAN_MOTION": 15.34278656, "ECCENTRICITY": 0.00414162, "INCLINATION": 73.9889, "RA_OF_ASC_NODE": 68.7111, "ARG_OF_PERICENTER": 197.0192, "MEAN_ANOMALY": 162.9627, "EPHEMERIS_TYPE": 0, "CLASSIFICATION_TYPE": "U", "NORAD_CAT_ID": 35891, "ELEMENT_SET_NO": 999, "REV_AT_EPOCH": 67400, "BSTAR": 0.0013301522, "MEAN_MOTION_DOT": 0.00045622, "MEAN_MOTION_DDOT": 0}, "tle": {"line1": "1 35891U 93036AUE 25358.45997170  .00045622  00000+0  13302-2 0  9991", "line2": "2 35891  73.9889  68.7111 0041416 197.0192 162.9627 15.34278656674008"}}, "geometry": {"type": "Point", "coordinates": [61.21159754372156, -7.54879739898582]}}, {"type": "Feature", "properties": {"norad_id": 35895, "name": "COSMOS 2251 DEB", "group": "cosmos-2251-debris", "lat": 28.17959138596518, "lon": -28.14905479891077, "alt_km": 758.82917372047, "timestamp": "2025-12-26T22:28:06.182449+00:00", "meta": {"OBJECT_NAME": "COSMOS 2251 DEB", "OBJECT_ID": "1993-036AUJ", "EPOCH": "2025-12-22T15:33:07.695936", "MEAN_MOTION": 14.01570651, "ECCENTRICITY": 0.01984376, "INCLINATION": 74.0474, "RA_OF_ASC_NODE": 330.4733, "ARG_OF_PERICENTER": 66.0465, "MEAN_ANOMALY": 296.1309, "EPHEMERIS_TYPE": 0, "CLASSIFICATION_TYPE": "U", "NORAD_CAT_ID": 35895, "ELEMENT_SET_NO": 999, "REV_AT_EPOCH": 59151, "BSTAR": 0.0014393062, "MEAN_MOTION_DOT": 2.565e-05, "MEAN_MOTION_DDOT": 0}, "tle": {"line1": "1 35895U 93036AUJ 25356.64800574  .00002565  00000+0  14393-2 0  9995", "line2": "2 35895  74.0474 330.4733 0198437  66.0465 296.1309 14.01570651591511"}}, "geometry": {"type": "Point", "coordinates": [-28.14905479891077, 28.17959138596518]}}, {"type": "Feature", "properties": {"norad_id": 35898, "name": "COSMOS 2251 DEB", "group": "cosmos-2251-debris", "lat": -22.537795928468896, "lon": -98.09067724066382, "alt_km": 569.8967881265789, "timestamp": "2025-12-26T22:28:06.182459+00:00", "meta": {"OBJECT_NAME": "COSMOS 2251 DEB", "OBJECT_ID": "1993-036AUM", "EPOCH": "2025-12-26T12:06:31.303008", "MEAN_MOTION": 14.94935336, "ECCENTRICITY": 0.0079357, "INCLINATION": 73.9908, "RA_OF_ASC_NODE": 269.6248, "ARG_OF_PERICENTER": 49.2962, "MEAN_ANOMALY": 126.094, "EPHEMERIS_TYPE": 0, "CLASSIFICATION_TYPE": "U", "NORAD_CAT_ID": 35898, "ELEMENT_SET_NO": 999, "REV_AT_EPOCH": 67015, "BSTAR": 0.00072114, "MEAN_MOTION_DOT": 8.353e-05, "MEAN_MOTION_DDOT": 0}, "tle": {"line1": "1 35898U 93036AUM 25360.50452897  .00008353  00000+0  72114-3 0  9996", "line2": "2 35898  73.9908 269.6248 0079357  49.2962 126.0940 14.94935336670159"}}, "geometry": {"type": "Point", "coordinates": [-98.09067724066382, -22.537795928468896]}}, {"type": "Feature", "properties": {"norad_id": 35901, "name": "COSMOS 2251 DEB", "group": "cosmos-2251-debris", "lat": -72.56651516645205, "lon": -72.30487821938483, "alt_km": 544.8746557220484, "timestamp": "2025-12-26T22:28:06.182470+00:00", "meta": {"OBJECT_NAME": "COSMOS 2251 DEB", "OBJECT_ID": "1993-036AUQ", "EPOCH": "2025-12-21T07:33:55.014048", "MEAN_MOTION": 15.07789315, "ECCENTRICITY": 0.0007598, "INCLINATION": 74.0113, "RA_OF_ASC_NODE": 5.2093, "ARG_OF_PERICENTER": 337.8636, "MEAN_ANOMALY": 36.6976, "EPHEMERIS_TYPE": 0, "CLASSIFICATION_TYPE": "U", "NORAD_CAT_ID": 35901, "ELEMENT_SET_NO": 999, "REV_AT_EPOCH": 86256, "BSTAR": 0.0027352, "MEAN_MOTION_DOT": 0.00042089, "MEAN_MOTION_DDOT": 0}, "tle": {"line1": "1 35901U 93036AUQ 25355.31522007  .00042089  00000+0  27352-2 0  9992", "line2": "2 35901  74.0113   5.2093 0007598 337.8636  36.6976 15.07789315862560"}}, "geometry": {"type": "Point", "coordinates": [-72.30487821938483, -72.56651516645205]}}, {"type": "Feature", "properties": {"norad_id": 35902, "name": "COSMOS 2251 DEB", "group": "cosmos-2251-debris", "lat": 40.38512857612, "lon": -137.0399059885057, "alt_km": 787.0679958509681, "timestamp": "2025-12-26T22:28:06.182480+00:00", "meta": {"OBJECT_NAME": "COSMOS 2251 DEB", "OBJECT_ID": "1993-036AUR", "EPOCH": "2025-12-22T20:41:03.846048", "MEAN_MOTION": 14.26951694, "ECCENTRICITY": 0.0102351, "INCLINATION": 73.9816, "RA_OF_ASC_NODE": 216.2092, "ARG_OF_PERICENTER": 329.0141, "MEAN_ANOMALY": 30.4992, "EPHEMERIS_TYPE": 0, "CLASSIFICATION_TYPE": "U", "NORAD_CAT_ID": 35902, "ELEMENT_SET_NO": 999, "REV_AT_EPOCH": 61274, "BSTAR": 0.0010058, "MEAN_MOTION_DOT": 2.559e-05, "MEAN_MOTION_DDOT": 0}, "tle": {"line1": "1 35902U 93036AUR 25356.86185007  .00002559  00000+0  10058-2 0  9992", "line2": "2 35902  73.9816 216.2092 0102351 329.0141  30.4992 14.26951694612743"}}, "geometry": {"type": "Point", "coordinates": [-137.0399059885057, 40.38512857612]}}, {"type": "Feature", "properties": {"norad_id": 35905, "name": "COSMOS 2251 DEB", "group": "cosmos-2251-debris", "lat": 70.73171676909868, "lon": -123.0093609434646, "alt_km": 624.9941137704682, "timestamp": "2025-12-26T22:28:06.182490+00:00", "meta": {"OBJECT_NAME": "COSMOS 2251 DEB", "OBJECT_ID": "1993-036AUU", "EPOCH": "2025-12-26T06:05:49.536384", "MEAN_MOTION": 14.99199654, "ECCENTRICITY": 0.0090469, "INCLINATION": 74.0306, "RA_OF_ASC_NODE": 183.3726, "ARG_OF_PERICENTER": 260.3473, "MEAN_ANOMALY": 98.7485, "EPHEMERIS_TYPE": 0, "CLASSIFICATION_TYPE": "U", "NORAD_CAT_ID": 35905, "ELEMENT_SET_NO": 999, "REV_AT_EPOCH": 88785, "BSTAR": 0.00060081, "MEAN_MOTION_DOT": 7.938e-05, "MEAN_MOTION_DDOT": 0}, "tle": {"line1": "1 35905U 93036AUU 25360.25404556  .00007938  00000+0  60081-3 0  9994", "line2": "2 35905  74.0306 183.3726 0090469 260.3473  98.7485 14.99199654887851"}}, "geometry": {"type": "Point", "coordinates": [-123.0093609434646, 70.73171676909868]}}, {"type": "Feature", "properties": {"norad_id": 35959, "name": "COSMOS 2251 DEB", "group": "cosmos-2251-debris", "lat": 43.87679202100039, "lon": 90.09762381656284, "alt_km": 784.1871981974455, "timestamp": "2025-12-26T22:28:06.182500+00:00", "meta": {"OBJECT_NAME": "COSMOS 2251 DEB", "OBJECT_ID": "1993-036AUZ", "EPOCH": "2025-12-24T06:13:49.219680", "MEAN_MOTION": 14.34143688, "ECCENTRICITY": 0.00220445, "INCLINATION": 74.0332, "RA_OF_ASC_NODE": 290.9748, "ARG_OF_PERICENTER": 8.3325, "MEAN_ANOMALY": 351.8188, "EPHEMERIS_TYPE": 0, "CLASSIFICATION_TYPE": "U", "NORAD_CAT_ID": 35959, "ELEMENT_SET_NO": 999, "REV_AT_EPOCH": 85093, "BSTAR": 0.00012200296, "MEAN_MOTION_DOT": 3.16e-06, "MEAN_MOTION_DDOT": 0}, "tle": {"line1": "1 35959U 93036AUZ 25358.25959745  .00000316  00000+0  12200-3 0  9998", "line2": "2 35959  74.0332 290.9748 0022044   8.3325 351.8188 14.34143688850935"}}, "geometry": {"type": "Point", "coordinates": [90.09762381656284, 43.87679202100039]}}, {"type": "Feature", "properties": {"norad_id": 35961, "name": "COSMOS 2251 DEB", "group": "cosmos-2251-debris", "lat": 35.10113807241338, "lon": -169.0957929416911, "alt_km": 828.5684251772509, "timestamp": "2025-12-26T22:28:06.182515+00:00", "meta": {"OBJECT_NAME": "COSMOS 2251 DEB", "OBJECT_ID": "1993-036AVB", "EPOCH": "2025-12-23T19:07:42.767328", "MEAN_MOTION": 14.05444821, "ECCENTRICITY": 0.01917264, "INCLINATION": 73.9256, "RA_OF_ASC_NODE": 184.7319, "ARG_OF_PERICENTER": 115.7574, "MEAN_ANOMALY": 246.3488, "EPHEMERIS_TYPE": 0, "CLASSIFICATION_TYPE": "U", "NORAD_CAT_ID": 35961, "ELEMENT_SET_NO": 999, "REV_AT_EPOCH": 62837, "BSTAR": 0.0013269491, "MEAN_MOTION_DOT": 2.518e-05, "MEAN_MOTION_DDOT": 0}, "tle": {"line1": "1 35961U 93036AVB 25357.79702277  .00002518  00000+0  13269-2 0  9996", "line2": "2 35961  73.9256 184.7319 0191726 115.7574 246.3488 14.05444821628371"}}, "geometry": {"type": "Point", "coordinates": [-169.0957929416911, 35.10113807241338]}}, {"type": "Feature", "properties": {"norad_id": 35979, "name": "COSMOS 2251 DEB", "group": "cosmos-2251-debris", "lat": -42.83645943194294, "lon": 46.03065763164381, "alt_km": 669.1791685829012, "timestamp": "2025-12-26T22:28:06.182527+00:00", "meta": {"OBJECT_NAME": "COSMOS 2251 DEB", "OBJECT_ID": "1993-036AVV", "EPOCH": "2025-12-22T21:28:01.748352", "MEAN_MOTION": 14.74747539, "ECCENTRICITY": 0.0059307, "INCLINATION": 74.008, "RA_OF_ASC_NODE": 218.5159, "ARG_OF_PERICENTER": 348.3492, "MEAN_ANOMALY": 27.9615, "EPHEMERIS_TYPE": 0, "CLASSIFICATION_TYPE": "U", "NORAD_CAT_ID": 35979, "ELEMENT_SET_NO": 999, "REV_AT_EPOCH": 88783, "BSTAR": 0.00076773, "MEAN_MOTION_DOT": 5.251e-05, "MEAN_MOTION_DDOT": 0}, "tle": {"line1": "1 35979U 93036AVV 25356.89446468  .00005251  00000+0  76773-3 0  9999", "line2": "2 35979  74.0080 218.5159 0059307 348.3492  27.9615 14.74747539887837"}}, "geometry": {"type": "Point", "coordinates": [46.03065763164381, -42.83645943194294]}}, {"type": "Feature", "properties": {"norad_id": 35980, "name": "COSMOS 2251 DEB", "group": "cosmos-2251-debris", "lat": 39.76698838837025, "lon": 109.31039589545175, "alt_km": 729.2079671592901, "timestamp": "2025-12-26T22:28:06.182537+00:00", "meta": {"OBJECT_NAME": "COSMOS 2251 DEB", "OBJECT_ID": "1993-036AVW", "EPOCH": "2025-12-25T13:22:27.353856", "MEAN_MOTION": 14.59476627, "ECCENTRICITY": 0.0053822, "INCLINATION": 73.912, "RA_OF_ASC_NODE": 98.0618, "ARG_OF_PERICENTER": 231.0081, "MEAN_ANOMALY": 128.6285, "EPHEMERIS_TYPE": 0, "CLASSIFICATION_TYPE": "U", "NORAD_CAT_ID": 35980, "ELEMENT_SET_NO": 999, "REV_AT_EPOCH": 61673, "BSTAR": 0.0016517, "MEAN_MOTION_DOT": 7.974e-05, "MEAN_MOTION_DDOT": 0}, "tle": {"line1": "1 35980U 93036AVW 25359.55726104  .00007974  00000+0  16517-2 0  9998", "line2": "2 35980  73.9120  98.0618 0053822 231.0081 128.6285 14.59476627616732"}}, "geometry": {"type": "Point", "coordinates": [109.31039589545175, 39.76698838837025]}}]}